[Satellite]
VERSION=1.1
NAME=ELFIN-A
NICKNAME=ELFIN-A
TLE1=1 43617U 18070E   19316.86434237  .00004991  00000-0  12861-3 0  9998
TLE2=2 43617  93.0402  64.7328 0018349  96.8572 263.4770 15.39062225 65042
STATUS=0
